CCSDS_OMM_VERS = 2.0
CREATION_DATE  = 
ORIGINATOR     = 

OBJECT_NAME    = SZ-21 MODULE
OBJECT_ID      = 2025-246C
CENTER_NAME    = EARTH
REF_FRAME      = TEME
TIME_SYSTEM    = UTC
MEAN_ELEMENT_THEORY = SGP/SGP4

EPOCH          = 2025-11-21T19:41:15.383616
MEAN_MOTION    = 15.61094701
ECCENTRICITY   = .0004562
INCLINATION    = 41.4748
RA_OF_ASC_NODE = 143.5222
ARG_OF_PERICENTER = 114.6347
MEAN_ANOMALY   = 245.4967

EPHEMERIS_TYPE = 0
CLASSIFICATION_TYPE = U
NORAD_CAT_ID   = 66515
ELEMENT_SET_NO = 999
REV_AT_EPOCH   = 117
BSTAR          = .30435E-3
MEAN_MOTION_DOT = .26158E-3
MEAN_MOTION_DDOT = 0

