SZ-21 MODULE            
1 66515U 25246C   25325.82031694  .00026158  00000+0  30435-3 0  9991
2 66515  41.4748 143.5222 0004562 114.6347 245.4967 15.61094701  1175
